COSMOS 2251 DEB         
1 35701U 93036APW 17339.76867676  .00000371  00000-0  31146-3 0  9992
2 35701  74.0114 127.4441 0316897 241.3209 115.5715 13.70772892435253
